COSMOS 2419 (714)       
1 28915U 05050A   17153.12409052 -.00000067  00000-0  00000-0 0  9999
2 28915  65.4889  66.3598 0017456 353.1681  52.1989  2.13106842 89013
COSMOS 2425 (716)       
1 29670U 06062A   17153.06889406 -.00000034  00000-0  10000-3 0  9998
2 29670  65.4684 305.3709 0020722 351.0603  64.2266  2.13104927 81214
COSMOS 2426 (717)       
1 29671U 06062B   17152.78813715 -.00000032  00000-0  10000-3 0  9995
2 29671  65.4873 305.4700 0018075 158.6875 259.6543  2.13102930 81217
COSMOS 2424 (715)       
1 29672U 06062C   17153.02998380 -.00000034  00000-0  10000-3 0  9998
2 29672  65.4718 305.3843 0017583 157.6145 261.5972  2.13102265 81214
COSMOS 2433 (720)       
1 32275U 07052A   17153.15618905 -.00000068  00000-0  10000-3 0  9994
2 32275  65.5045  66.1367 0003258 300.4778  13.8924  2.13104640 74720
COSMOS 2432 (719)       
1 32276U 07052B   17152.75104762 -.00000064  00000-0  10000-3 0  9997
2 32276  65.5163  66.2214 0013312 337.8804 338.5949  2.13104158 74717
COSMOS 2434 (721)       
1 32393U 07065A   17153.05748203 -.00000035  00000-0  00000-0 0  9993
2 32393  65.0867 304.5284 0005930 106.2941  22.0164  2.13102928 73430
COSMOS 2436 (723)       
1 32395U 07065C   17152.90019288 -.00000034  00000-0  10000-3 0  9995
2 32395  65.0961 304.5797 0014958   8.0842  48.1703  2.13104311 73363
COSMOS 2443 (725)       
1 33379U 08046B   17152.81133984 -.00000066  00000-0  00000-0 0  9999
2 33379  65.4330  65.5325 0011345 181.2722 129.3155  2.13099398 67587
COSMOS 2456 (730)       
1 36111U 09070A   17152.83511256  .00000058  00000-0  00000-0 0  9998
2 36111  64.1790 184.1021 0006208 300.0029 188.7560  2.13102953 58091
COSMOS 2457 (733)       
1 36112U 09070B   17153.03899766  .00000061  00000-0  00000-0 0  9991
2 36112  64.1610 184.0141 0006332 189.5468 224.2532  2.13101618 58104
COSMOS 2458 (734)       
1 36113U 09070C   17153.05267372  .00000061  00000-0  10000-3 0  9990
2 36113  64.1674 184.0217 0002569 301.9945 170.2764  2.13102101 58102
COSMOS 2459 (731)       
1 36400U 10007A   17153.04467752 -.00000068  00000-0  10000-3 0  9992
2 36400  65.4139  65.2472 0029411 352.3263  98.7083  2.13102366 56459
COSMOS 2461 (735)       
1 36401U 10007B   17152.70882247 -.00000065  00000-0  10000-3 0  9992
2 36401  65.4059  65.2370 0007252  53.2390  50.7369  2.13102391 56447
COSMOS 2460 (732)       
1 36402U 10007C   17153.05894684 -.00000068  00000-0  10000-3 0  9993
2 36402  65.3966  65.1980 0002143 352.6060  61.2837  2.13101832 56451
COSMOS 2465 (737)       
1 37138U 10041B   17152.90004241 -.00000035  00000-0  00000-0 0  9993
2 37138  64.6849 304.5307 0035890 169.2778 243.0710  2.13105734 52525
COSMOS 2464 (736)       
1 37139U 10041C   17153.11302310 -.00000037  00000-0  00000-0 0  9998
2 37139  64.6916 304.5210 0023476  17.3232  21.3349  2.13102596 52527
COSMOS 2471 (701K)      
1 37372U 11009A   17152.75140263 -.00000066  00000-0  00000-0 0  9990
2 37372  65.3948  65.1561 0007449 243.6427  70.1238  2.13107638 48717
COSMOS 2474 (742)       
1 37829U 11055A   17153.05426747  .00000061  00000-0  00000-0 0  9990
2 37829  64.5039 184.6520 0010523 253.3112 263.4379  2.13101965 44091
COSMOS 2476 (744)       
1 37867U 11064A   17152.83082795  .00000058  00000-0  00000-0 0  9994
2 37867  64.4828 184.7336 0019696 246.5887 144.6841  2.13102030 43443
COSMOS 2477 (745)       
1 37868U 11064B   17152.93987917  .00000059  00000-0  00000-0 0  9997
2 37868  64.4921 184.7731 0017589 248.0636  45.9926  2.13101857 43392
COSMOS 2475 (743)       
1 37869U 11064C   17152.94841451  .00000059  00000-0  00000-0 0  9991
2 37869  64.4989 184.7636 0022488 271.3286 345.6578  2.13102009 43400
COSMOS 2485 (747)       
1 39155U 13019A   17153.02057547  .00000060  00000-0  00000-0 0  9990
2 39155  64.6526 184.7525 0019979 241.8263 340.0350  2.13102033 31911
COSMOS 2492 (754)       
1 39620U 14012A   17152.92022323 -.00000067  00000-0  10000-3 0  9995
2 39620  65.2862  65.1418 0016726 333.5297 205.4742  2.13103462 24866
COSMOS 2500 (755)       
1 40001U 14032A   17153.04313412 -.00000068  00000-0  00000-0 0  9995
2 40001  65.2262  65.1349 0004464 220.3549 276.0080  2.13102926 23083
COSMOS 2501 (702K)      
1 40315U 14075A   17153.13062882 -.00000037  00000-0  00000-0 0  9998
2 40315  64.4187 305.8673 0014454 203.8683 165.8628  2.13098568 19496
COSMOS 2514 (751)       
1 41330U 16008A   17152.86438141 -.00000067  00000-0  00000-0 0  9991
2 41330  65.0269  65.2899 0007908 226.3190 312.8636  2.13103477 10241
COSMOS 2516 (753)       
1 41554U 16032A   17152.87829164 -.00000035  00000-0  00000-0 0  9991
2 41554  64.6384 305.6360 0010531 213.3891 229.1389  2.13101571  7857
